[
  {
    "OBJECT_NAME": "STARLINK-33579",
    "OBJECT_ID": "25015G",
    "EPOCH": "2025-11-11T06:11:17.893536",
    "MEAN_MOTION": 15.30210297,
    "ECCENTRICITY": 0.0001889,
    "INCLINATION": 53.1549,
    "RA_OF_ASC_NODE": 152.2109,
    "ARG_OF_PERICENTER": 78.7633,
    "MEAN_ANOMALY": 281.358,
    "EPHEMERIS_TYPE": 0,
    "CLASSIFICATION_TYPE": "U",
    "NORAD_CAT_ID": 62764,
    "ELEMENT_SET_NO": 999,
    "REV_AT_EPOCH": 4635,
    "BSTAR": 0.0013955,
    "MEAN_MOTION_DOT": 0.00041216,
    "MEAN_MOTION_DDOT": 0.0,
    "TLE_LINE1": "1 62764U 25015G   25315.25784599  .00041216  00000+0  13955-2 0  9991",
    "TLE_LINE2": "2 62764  53.1549 152.2109 0001889  78.7633 281.3580 15.30210297 46359",
    "COMMENT": "Grouped by shell and plane from TLE"
  },
  {
    "OBJECT_NAME": "STARLINK-33592",
    "OBJECT_ID": "25015H",
    "EPOCH": "2025-11-10T23:21:47.684448",
    "MEAN_MOTION": 15.30203036,
    "ECCENTRICITY": 0.0001142,
    "INCLINATION": 53.1597,
    "RA_OF_ASC_NODE": 153.9873,
    "ARG_OF_PERICENTER": 42.0516,
    "MEAN_ANOMALY": 318.0573,
    "EPHEMERIS_TYPE": 0,
    "CLASSIFICATION_TYPE": "U",
    "NORAD_CAT_ID": 62765,
    "ELEMENT_SET_NO": 999,
    "REV_AT_EPOCH": 4617,
    "BSTAR": 0.0007024500000000001,
    "MEAN_MOTION_DOT": 0.00020505,
    "MEAN_MOTION_DDOT": 0.0,
    "TLE_LINE1": "1 62765U 25015H   25314.97346857  .00020505  00000+0  70245-3 0  9995",
    "TLE_LINE2": "2 62765  53.1597 153.9873 0001142  42.0516 318.0573 15.30203036 46178",
    "COMMENT": "Grouped by shell and plane from TLE"
  },
  {
    "OBJECT_NAME": "STARLINK-33595",
    "OBJECT_ID": "25015J",
    "EPOCH": "2025-11-10T19:37:14.217024",
    "MEAN_MOTION": 15.30211405,
    "ECCENTRICITY": 0.0002515,
    "INCLINATION": 53.1567,
    "RA_OF_ASC_NODE": 154.4374,
    "ARG_OF_PERICENTER": 82.8022,
    "MEAN_ANOMALY": 277.3265,
    "EPHEMERIS_TYPE": 0,
    "CLASSIFICATION_TYPE": "U",
    "NORAD_CAT_ID": 62766,
    "ELEMENT_SET_NO": 999,
    "REV_AT_EPOCH": 4628,
    "BSTAR": 0.0012038,
    "MEAN_MOTION_DOT": 0.00035478,
    "MEAN_MOTION_DDOT": 0.0,
    "TLE_LINE1": "1 62766U 25015J   25314.81752566  .00035478  00000+0  12038-2 0  9997",
    "TLE_LINE2": "2 62766  53.1567 154.4374 0002515  82.8022 277.3265 15.30211405 46283",
    "COMMENT": "Grouped by shell and plane from TLE"
  },
  {
    "OBJECT_NAME": "STARLINK-33572",
    "OBJECT_ID": "25015K",
    "EPOCH": "2025-11-11T06:58:24.487680",
    "MEAN_MOTION": 15.30208218,
    "ECCENTRICITY": 0.0002121,
    "INCLINATION": 53.1563,
    "RA_OF_ASC_NODE": 152.4109,
    "ARG_OF_PERICENTER": 93.9778,
    "MEAN_ANOMALY": 266.1465,
    "EPHEMERIS_TYPE": 0,
    "CLASSIFICATION_TYPE": "U",
    "NORAD_CAT_ID": 62767,
    "ELEMENT_SET_NO": 999,
    "REV_AT_EPOCH": 4629,
    "BSTAR": 0.0016391,
    "MEAN_MOTION_DOT": 0.00048517,
    "MEAN_MOTION_DDOT": 0.0,
    "TLE_LINE1": "1 62767U 25015K   25315.29056120  .00048517  00000+0  16391-2 0  9998",
    "TLE_LINE2": "2 62767  53.1563 152.4109 0002121  93.9778 266.1465 15.30208218 46295",
    "COMMENT": "Grouped by shell and plane from TLE"
  },
  {
    "OBJECT_NAME": "STARLINK-33601",
    "OBJECT_ID": "25015L",
    "EPOCH": "2025-11-11T06:49:16.474944",
    "MEAN_MOTION": 15.30235874,
    "ECCENTRICITY": 7.03e-05,
    "INCLINATION": 53.1647,
    "RA_OF_ASC_NODE": 152.3731,
    "ARG_OF_PERICENTER": 296.048,
    "MEAN_ANOMALY": 64.0448,
    "EPHEMERIS_TYPE": 0,
    "CLASSIFICATION_TYPE": "U",
    "NORAD_CAT_ID": 62768,
    "ELEMENT_SET_NO": 999,
    "REV_AT_EPOCH": 4635,
    "BSTAR": 0.0014147,
    "MEAN_MOTION_DOT": 0.00041823,
    "MEAN_MOTION_DDOT": 0.0,
    "TLE_LINE1": "1 62768U 25015L   25315.28421846  .00041823  00000+0  14147-2 0  9999",
    "TLE_LINE2": "2 62768  53.1647 152.3731 0000703 296.0480  64.0448 15.30235874 46350",
    "COMMENT": "Grouped by shell and plane from TLE"
  },
  {
    "OBJECT_NAME": "STARLINK-33569",
    "OBJECT_ID": "25015M",
    "EPOCH": "2025-11-11T06:24:58.176000",
    "MEAN_MOTION": 15.30215475,
    "ECCENTRICITY": 0.0001825,
    "INCLINATION": 53.1572,
    "RA_OF_ASC_NODE": 152.2696,
    "ARG_OF_PERICENTER": 86.5414,
    "MEAN_ANOMALY": 273.5796,
    "EPHEMERIS_TYPE": 0,
    "CLASSIFICATION_TYPE": "U",
    "NORAD_CAT_ID": 62769,
    "ELEMENT_SET_NO": 999,
    "REV_AT_EPOCH": 4635,
    "BSTAR": 0.00036492,
    "MEAN_MOTION_DOT": 0.00010469,
    "MEAN_MOTION_DDOT": 0.0,
    "TLE_LINE1": "1 62769U 25015M   25315.26734000  .00010469  00000+0  36492-3 0  9997",
    "TLE_LINE2": "2 62769  53.1572 152.2696 0001825  86.5414 273.5796 15.30215475 46350",
    "COMMENT": "Grouped by shell and plane from TLE"
  },
  {
    "OBJECT_NAME": "STARLINK-33594",
    "OBJECT_ID": "25015N",
    "EPOCH": "2025-11-11T06:14:19.198752",
    "MEAN_MOTION": 15.30185291,
    "ECCENTRICITY": 0.0001232,
    "INCLINATION": 53.1588,
    "RA_OF_ASC_NODE": 152.2251,
    "ARG_OF_PERICENTER": 109.0194,
    "MEAN_ANOMALY": 251.094,
    "EPHEMERIS_TYPE": 0,
    "CLASSIFICATION_TYPE": "U",
    "NORAD_CAT_ID": 62770,
    "ELEMENT_SET_NO": 999,
    "REV_AT_EPOCH": 4635,
    "BSTAR": 0.00090391,
    "MEAN_MOTION_DOT": 0.00026495,
    "MEAN_MOTION_DDOT": 0.0,
    "TLE_LINE1": "1 62770U 25015N   25315.25994443  .00026495  00000+0  90391-3 0  9991",
    "TLE_LINE2": "2 62770  53.1588 152.2251 0001232 109.0194 251.0940 15.30185291 46358",
    "COMMENT": "Grouped by shell and plane from TLE"
  },
  {
    "OBJECT_NAME": "STARLINK-33598",
    "OBJECT_ID": "25015P",
    "EPOCH": "2025-11-11T06:28:00.553440",
    "MEAN_MOTION": 15.30228952,
    "ECCENTRICITY": 9.66e-05,
    "INCLINATION": 53.1586,
    "RA_OF_ASC_NODE": 152.2774,
    "ARG_OF_PERICENTER": 83.0527,
    "MEAN_ANOMALY": 277.0583,
    "EPHEMERIS_TYPE": 0,
    "CLASSIFICATION_TYPE": "U",
    "NORAD_CAT_ID": 62771,
    "ELEMENT_SET_NO": 999,
    "REV_AT_EPOCH": 4635,
    "BSTAR": 0.0016114,
    "MEAN_MOTION_DOT": 0.00047715,
    "MEAN_MOTION_DDOT": 0.0,
    "TLE_LINE1": "1 62771U 25015P   25315.26945085  .00047715  00000+0  16114-2 0  9999",
    "TLE_LINE2": "2 62771  53.1586 152.2774 0000966  83.0527 277.0583 15.30228952 46354",
    "COMMENT": "Grouped by shell and plane from TLE"
  },
  {
    "OBJECT_NAME": "STARLINK-33600",
    "OBJECT_ID": "25015Q",
    "EPOCH": "2025-11-10T23:35:29.144544",
    "MEAN_MOTION": 15.30216141,
    "ECCENTRICITY": 7.24e-05,
    "INCLINATION": 53.1559,
    "RA_OF_ASC_NODE": 154.0412,
    "ARG_OF_PERICENTER": 46.9237,
    "MEAN_ANOMALY": 313.1824,
    "EPHEMERIS_TYPE": 0,
    "CLASSIFICATION_TYPE": "U",
    "NORAD_CAT_ID": 62772,
    "ELEMENT_SET_NO": 999,
    "REV_AT_EPOCH": 4630,
    "BSTAR": 0.0014479,
    "MEAN_MOTION_DOT": 0.00042791,
    "MEAN_MOTION_DDOT": 0.0,
    "TLE_LINE1": "1 62772U 25015Q   25314.98297621  .00042791  00000+0  14479-2 0  9995",
    "TLE_LINE2": "2 62772  53.1559 154.0412 0000724  46.9237 313.1824 15.30216141 46304",
    "COMMENT": "Grouped by shell and plane from TLE"
  },
  {
    "OBJECT_NAME": "STARLINK-33567",
    "OBJECT_ID": "25015R",
    "EPOCH": "2025-11-11T06:44:43.170144",
    "MEAN_MOTION": 15.30226738,
    "ECCENTRICITY": 2.98e-05,
    "INCLINATION": 53.1584,
    "RA_OF_ASC_NODE": 152.3484,
    "ARG_OF_PERICENTER": 74.3164,
    "MEAN_ANOMALY": 285.7869,
    "EPHEMERIS_TYPE": 0,
    "CLASSIFICATION_TYPE": "U",
    "NORAD_CAT_ID": 62773,
    "ELEMENT_SET_NO": 999,
    "REV_AT_EPOCH": 4635,
    "BSTAR": 0.0012054,
    "MEAN_MOTION_DOT": 0.00035542,
    "MEAN_MOTION_DDOT": 0.0,
    "TLE_LINE1": "1 62773U 25015R   25315.28105521  .00035542  00000+0  12054-2 0  9990",
    "TLE_LINE2": "2 62773  53.1584 152.3484 0000298  74.3164 285.7869 15.30226738 46354",
    "COMMENT": "Grouped by shell and plane from TLE"
  },
  {
    "OBJECT_NAME": "STARLINK-33574",
    "OBJECT_ID": "25015S",
    "EPOCH": "2025-11-11T06:34:05.570976",
    "MEAN_MOTION": 15.30202457,
    "ECCENTRICITY": 0.00019,
    "INCLINATION": 53.1556,
    "RA_OF_ASC_NODE": 152.3067,
    "ARG_OF_PERICENTER": 85.6823,
    "MEAN_ANOMALY": 274.4395,
    "EPHEMERIS_TYPE": 0,
    "CLASSIFICATION_TYPE": "U",
    "NORAD_CAT_ID": 62774,
    "ELEMENT_SET_NO": 999,
    "REV_AT_EPOCH": 4607,
    "BSTAR": 0.0016317999999999999,
    "MEAN_MOTION_DOT": 0.00048291,
    "MEAN_MOTION_DDOT": 0.0,
    "TLE_LINE1": "1 62774U 25015S   25315.27367559  .00048291  00000+0  16318-2 0  9993",
    "TLE_LINE2": "2 62774  53.1556 152.3067 0001900  85.6823 274.4395 15.30202457 46079",
    "COMMENT": "Grouped by shell and plane from TLE"
  },
  {
    "OBJECT_NAME": "STARLINK-33576",
    "OBJECT_ID": "25015T",
    "EPOCH": "2025-11-10T23:20:18.071232",
    "MEAN_MOTION": 15.30223733,
    "ECCENTRICITY": 0.0002779,
    "INCLINATION": 53.1539,
    "RA_OF_ASC_NODE": 153.979,
    "ARG_OF_PERICENTER": 101.6353,
    "MEAN_ANOMALY": 258.496,
    "EPHEMERIS_TYPE": 0,
    "CLASSIFICATION_TYPE": "U",
    "NORAD_CAT_ID": 62775,
    "ELEMENT_SET_NO": 999,
    "REV_AT_EPOCH": 4624,
    "BSTAR": 0.0011018,
    "MEAN_MOTION_DOT": 0.00032442,
    "MEAN_MOTION_DDOT": 0.0,
    "TLE_LINE1": "1 62775U 25015T   25314.97243138  .00032442  00000+0  11018-2 0  9999",
    "TLE_LINE2": "2 62775  53.1539 153.9790 0002779 101.6353 258.4960 15.30223733 46242",
    "COMMENT": "Grouped by shell and plane from TLE"
  },
  {
    "OBJECT_NAME": "STARLINK-33570",
    "OBJECT_ID": "25015U",
    "EPOCH": "2025-11-11T06:32:35.095488",
    "MEAN_MOTION": 15.30199158,
    "ECCENTRICITY": 0.0004237,
    "INCLINATION": 53.1518,
    "RA_OF_ASC_NODE": 152.2993,
    "ARG_OF_PERICENTER": 80.9242,
    "MEAN_ANOMALY": 279.2238,
    "EPHEMERIS_TYPE": 0,
    "CLASSIFICATION_TYPE": "U",
    "NORAD_CAT_ID": 62776,
    "ELEMENT_SET_NO": 999,
    "REV_AT_EPOCH": 4629,
    "BSTAR": 0.00122,
    "MEAN_MOTION_DOT": 0.00035955,
    "MEAN_MOTION_DDOT": 0.0,
    "TLE_LINE1": "1 62776U 25015U   25315.27262842  .00035955  00000+0  12200-2 0  9993",
    "TLE_LINE2": "2 62776  53.1518 152.2993 0004237  80.9242 279.2238 15.30199158 46291",
    "COMMENT": "Grouped by shell and plane from TLE"
  }
]